start=new Date('2022-12-11T00:00:00.000Z').valueOf();
sats=[{"GP_ID":"219936564","CLASSIFICATION_TYPE":"U","BSTAR":"-0.00008942000000","INCLINATION":"53.2188","DECAY_DATE":null,"TIME_SYSTEM":"UTC","LAUNCH_DATE":"2022-08-19","SEMIMAJOR_AXIS":"6917.904","MEAN_MOTION":"15.08832432","RA_OF_ASC_NODE":"355.3896","REF_FRAME":"TEME","MEAN_ANOMALY":"327.8743","PERIAPSIS":"538.306","REV_AT_EPOCH":"1721","MEAN_MOTION_DOT":"-0.00001711","FILE":"3688140","NORAD_CAT_ID":"53530","MEAN_ELEMENT_THEORY":"SGP4","ECCENTRICITY":"0.00021140","ARG_OF_PERICENTER":"32.2378","PERIOD":"95.438","TLE_LINE1":"1 53530U 22101D   22344.33346520 -.00001711  00000-0 -89420-4 0  9992","TLE_LINE2":"2 53530  53.2188 355.3896 0002114  32.2378 327.8743 15.08832432 17218","OBJECT_ID":"2022-101D","OBJECT_NAME":"STARLINK-4482","SITE":"AFETR","COUNTRY_CODE":"US","EPOCH":"2022-12-10T08:00:11.393280","ELEMENT_SET_NO":"999","MEAN_MOTION_DDOT":"0.0000000000000","APOAPSIS":"541.231","RCS_SIZE":"LARGE","OBJECT_TYPE":"PAYLOAD","EPHEMERIS_TYPE":"0","CENTER_NAME":"EARTH"},{"DECAY_DATE":null,"INCLINATION":"53.2168","CLASSIFICATION_TYPE":"U","BSTAR":"-0.00019443000000","GP_ID":"219935560","REF_FRAME":"TEME","RA_OF_ASC_NODE":"354.7822","MEAN_MOTION":"15.08837459","SEMIMAJOR_AXIS":"6917.888","LAUNCH_DATE":"2022-08-19","TIME_SYSTEM":"UTC","MEAN_ELEMENT_THEORY":"SGP4","MEAN_MOTION_DOT":"-0.00003381","FILE":"3688140","NORAD_CAT_ID":"53531","REV_AT_EPOCH":"1723","MEAN_ANOMALY":"332.9777","PERIAPSIS":"538.110","PERIOD":"95.438","TLE_LINE1":"1 53531U 22101E   22344.46866538 -.00003381  00000-0 -19443-3 0  9995","ARG_OF_PERICENTER":"27.1339","ECCENTRICITY":"0.00023750","SITE":"AFETR","OBJECT_NAME":"STARLINK-4487","OBJECT_ID":"2022-101E","TLE_LINE2":"2 53531  53.2168 354.7822 0002375  27.1339 332.9777 15.08837459 17238","APOAPSIS":"541.396","MEAN_MOTION_DDOT":"0.0000000000000","ELEMENT_SET_NO":"999","EPOCH":"2022-12-10T11:14:52.688832","COUNTRY_CODE":"US","OBJECT_TYPE":"PAYLOAD","RCS_SIZE":"LARGE","CENTER_NAME":"EARTH","EPHEMERIS_TYPE":"0"},{"TLE_LINE2":"2 53532  53.2197 354.6411 0001898  38.3741 321.7385 15.08781360 17245","SITE":"AFETR","OBJECT_NAME":"STARLINK-4483","OBJECT_ID":"2022-101F","COUNTRY_CODE":"US","EPOCH":"2022-12-10T12:02:37.864896","ELEMENT_SET_NO":"999","APOAPSIS":"541.238","MEAN_MOTION_DDOT":"0.0000000000000","RCS_SIZE":"LARGE","OBJECT_TYPE":"PAYLOAD","EPHEMERIS_TYPE":"0","CENTER_NAME":"EARTH","CLASSIFICATION_TYPE":"U","BSTAR":"-0.00076119000000","GP_ID":"219942354","DECAY_DATE":null,"INCLINATION":"53.2197","TIME_SYSTEM":"UTC","SEMIMAJOR_AXIS":"6918.060","LAUNCH_DATE":"2022-08-19","REF_FRAME":"TEME","MEAN_MOTION":"15.08781360","RA_OF_ASC_NODE":"354.6411","PERIAPSIS":"538.612","MEAN_ANOMALY":"321.7385","REV_AT_EPOCH":"1724","MEAN_ELEMENT_THEORY":"SGP4","FILE":"3688467","NORAD_CAT_ID":"53532","MEAN_MOTION_DOT":"-0.00012363","ECCENTRICITY":"0.00018980","ARG_OF_PERICENTER":"38.3741","TLE_LINE1":"1 53532U 22101F   22344.50182714 -.00012363  00000-0 -76119-3 0  9991","PERIOD":"95.441"},{"BSTAR":"0.00002352300000","CLASSIFICATION_TYPE":"U","GP_ID":"219935343","DECAY_DATE":null,"INCLINATION":"53.2221","TIME_SYSTEM":"UTC","SEMIMAJOR_AXIS":"6917.890","LAUNCH_DATE":"2022-08-19","REF_FRAME":"TEME","MEAN_MOTION":"15.08836807","RA_OF_ASC_NODE":"355.5398","MEAN_ANOMALY":"325.7996","PERIAPSIS":"538.035","REV_AT_EPOCH":"1721","MEAN_ELEMENT_THEORY":"SGP4","NORAD_CAT_ID":"53533","FILE":"3688140","MEAN_MOTION_DOT":"0.00000086","ECCENTRICITY":"0.00024870","ARG_OF_PERICENTER":"34.3157","PERIOD":"95.438","TLE_LINE1":"1 53533U 22101G   22344.30034346  .00000086  00000-0  23523-4 0  9996","TLE_LINE2":"2 53533  53.2221 355.5398 0002487  34.3157 325.7996 15.08836807 17216","SITE":"AFETR","OBJECT_NAME":"STARLINK-4493","OBJECT_ID":"2022-101G","COUNTRY_CODE":"US","EPOCH":"2022-12-10T07:12:29.674944","ELEMENT_SET_NO":"999","APOAPSIS":"541.476","MEAN_MOTION_DDOT":"0.0000000000000","RCS_SIZE":"LARGE","OBJECT_TYPE":"PAYLOAD","EPHEMERIS_TYPE":"0","CENTER_NAME":"EARTH"},{"RCS_SIZE":"LARGE","OBJECT_TYPE":"PAYLOAD","EPHEMERIS_TYPE":"0","CENTER_NAME":"EARTH","TLE_LINE2":"2 53534  53.2214 355.2934 0002275  38.4601 321.6553 15.08830103 17224","OBJECT_NAME":"STARLINK-4488","SITE":"AFETR","OBJECT_ID":"2022-101H","EPOCH":"2022-12-10T08:30:36.261504","COUNTRY_CODE":"US","APOAPSIS":"541.349","MEAN_MOTION_DDOT":"0.0000000000000","ELEMENT_SET_NO":"999","REV_AT_EPOCH":"1722","PERIAPSIS":"538.202","MEAN_ANOMALY":"321.6553","MEAN_ELEMENT_THEORY":"SGP4","FILE":"3688140","NORAD_CAT_ID":"53534","MEAN_MOTION_DOT":"-0.00000203","ECCENTRICITY":"0.00022750","TLE_LINE1":"1 53534U 22101H   22344.35458636 -.00000203  00000-0  53776-5 0  9990","PERIOD":"95.438","ARG_OF_PERICENTER":"38.4601","DECAY_DATE":null,"INCLINATION":"53.2214","CLASSIFICATION_TYPE":"U","BSTAR":"0.00000537760000","GP_ID":"219936170","SEMIMAJOR_AXIS":"6917.911","LAUNCH_DATE":"2022-08-19","TIME_SYSTEM":"UTC","REF_FRAME":"TEME","RA_OF_ASC_NODE":"355.2934","MEAN_MOTION":"15.08830103"},{"BSTAR":"0.00004430500000","CLASSIFICATION_TYPE":"U","GP_ID":"219935139","DECAY_DATE":null,"INCLINATION":"53.2212","TIME_SYSTEM":"UTC","SEMIMAJOR_AXIS":"6917.891","LAUNCH_DATE":"2022-08-19","REF_FRAME":"TEME","RA_OF_ASC_NODE":"355.2599","MEAN_MOTION":"15.08836542","PERIAPSIS":"538.187","MEAN_ANOMALY":"318.6199","REV_AT_EPOCH":"1722","MEAN_ELEMENT_THEORY":"SGP4","FILE":"3688140","MEAN_MOTION_DOT":"0.00000417","NORAD_CAT_ID":"53535","ECCENTRICITY":"0.00022680","ARG_OF_PERICENTER":"41.4965","TLE_LINE1":"1 53535U 22101J   22344.36194679  .00000417  00000-0  44305-4 0  9999","PERIOD":"95.438","TLE_LINE2":"2 53535  53.2212 355.2599 0002268  41.4965 318.6199 15.08836542 17224","OBJECT_NAME":"STARLINK-4138","SITE":"AFETR","OBJECT_ID":"2022-101J","COUNTRY_CODE":"US","EPOCH":"2022-12-10T08:41:12.202656","ELEMENT_SET_NO":"999","APOAPSIS":"541.325","MEAN_MOTION_DDOT":"0.0000000000000","RCS_SIZE":"LARGE","OBJECT_TYPE":"PAYLOAD","EPHEMERIS_TYPE":"0","CENTER_NAME":"EARTH"},{"CENTER_NAME":"EARTH","EPHEMERIS_TYPE":"0","OBJECT_TYPE":"PAYLOAD","RCS_SIZE":"LARGE","ELEMENT_SET_NO":"999","APOAPSIS":"546.288","MEAN_MOTION_DDOT":"0.0000000000000","COUNTRY_CODE":"US","EPOCH":"2022-12-10T11:36:53.626464","OBJECT_NAME":"STARLINK-4053","SITE":"AFETR","OBJECT_ID":"2022-101K","TLE_LINE2":"2 53536  53.2179 344.1002 0002155  14.7619 345.3435 15.07188975 17383","ARG_OF_PERICENTER":"14.7619","PERIOD":"95.542","TLE_LINE1":"1 53536U 22101K   22344.48395401 -.00005337  00000-0 -33235-3 0  9996","ECCENTRICITY":"0.00021550","MEAN_ELEMENT_THEORY":"SGP4","FILE":"3688467","NORAD_CAT_ID":"53536","MEAN_MOTION_DOT":"-0.00005337","MEAN_ANOMALY":"345.3435","PERIAPSIS":"543.305","REV_AT_EPOCH":"1738","REF_FRAME":"TEME","MEAN_MOTION":"15.07188975","RA_OF_ASC_NODE":"344.1002","TIME_SYSTEM":"UTC","SEMIMAJOR_AXIS":"6922.932","LAUNCH_DATE":"2022-08-19","CLASSIFICATION_TYPE":"U","BSTAR":"-0.00033235000000","GP_ID":"219942051","DECAY_DATE":null,"INCLINATION":"53.2179"},{"MEAN_MOTION_DDOT":"0.0000000000000","APOAPSIS":"541.397","ELEMENT_SET_NO":"999","EPOCH":"2022-12-10T07:11:05.389152","COUNTRY_CODE":"US","OBJECT_ID":"2022-101L","OBJECT_NAME":"STARLINK-4120","SITE":"AFETR","TLE_LINE2":"2 53537  53.2191 355.5397 0002383  44.6585 315.4598 15.08838831 17212","CENTER_NAME":"EARTH","EPHEMERIS_TYPE":"0","OBJECT_TYPE":"PAYLOAD","RCS_SIZE":"LARGE","RA_OF_ASC_NODE":"355.5397","MEAN_MOTION":"15.08838831","REF_FRAME":"TEME","LAUNCH_DATE":"2022-08-19","SEMIMAJOR_AXIS":"6917.884","TIME_SYSTEM":"UTC","INCLINATION":"53.2191","DECAY_DATE":null,"GP_ID":"219935765","BSTAR":"0.00056793000000","CLASSIFICATION_TYPE":"U","PERIOD":"95.438","TLE_LINE1":"1 53537U 22101L   22344.29936793  .00008762  00000-0  56793-3 0  9998","ARG_OF_PERICENTER":"44.6585","ECCENTRICITY":"0.00023830","NORAD_CAT_ID":"53537","FILE":"3688140","MEAN_MOTION_DOT":"0.00008762","MEAN_ELEMENT_THEORY":"SGP4","REV_AT_EPOCH":"1721","MEAN_ANOMALY":"315.4598","PERIAPSIS":"538.100"},{"ECCENTRICITY":"0.00017740","ARG_OF_PERICENTER":"30.2946","PERIOD":"95.437","TLE_LINE1":"1 53538U 22101M   22344.47324927 -.00000811  00000-0 -32847-4 0  9993","PERIAPSIS":"538.512","MEAN_ANOMALY":"329.8148","REV_AT_EPOCH":"1806","MEAN_ELEMENT_THEORY":"SGP4","FILE":"3688140","NORAD_CAT_ID":"53538","MEAN_MOTION_DOT":"-0.00000811","TIME_SYSTEM":"UTC","SEMIMAJOR_AXIS":"6917.875","LAUNCH_DATE":"2022-08-19","REF_FRAME":"TEME","MEAN_MOTION":"15.08841901","RA_OF_ASC_NODE":"344.7625","BSTAR":"-0.00003284700000","CLASSIFICATION_TYPE":"U","GP_ID":"219936565","DECAY_DATE":null,"INCLINATION":"53.2168","EPHEMERIS_TYPE":"0","CENTER_NAME":"EARTH","RCS_SIZE":"LARGE","OBJECT_TYPE":"PAYLOAD","COUNTRY_CODE":"US","EPOCH":"2022-12-10T11:21:28.736928","ELEMENT_SET_NO":"999","APOAPSIS":"540.967","MEAN_MOTION_DDOT":"0.0000000000000","TLE_LINE2":"2 53538  53.2168 344.7625 0001774  30.2946 329.8148 15.08841901 18062","OBJECT_NAME":"STARLINK-4118","SITE":"AFETR","OBJECT_ID":"2022-101M"},{"LAUNCH_DATE":"2022-08-19","SEMIMAJOR_AXIS":"6917.906","TIME_SYSTEM":"UTC","MEAN_MOTION":"15.08831538","RA_OF_ASC_NODE":"355.2738","REF_FRAME":"TEME","INCLINATION":"53.2209","DECAY_DATE":null,"GP_ID":"219935561","CLASSIFICATION_TYPE":"U","BSTAR":"-0.00003621700000","ECCENTRICITY":"0.00022270","PERIOD":"95.438","TLE_LINE1":"1 53539U 22101N   22344.35825655 -.00000865  00000-0 -36217-4 0  9999","ARG_OF_PERICENTER":"31.1452","REV_AT_EPOCH":"1722","PERIAPSIS":"538.231","MEAN_ANOMALY":"328.9672","FILE":"3688140","NORAD_CAT_ID":"53539","MEAN_MOTION_DOT":"-0.00000865","MEAN_ELEMENT_THEORY":"SGP4","EPOCH":"2022-12-10T08:35:53.365920","COUNTRY_CODE":"US","MEAN_MOTION_DDOT":"0.0000000000000","APOAPSIS":"541.312","ELEMENT_SET_NO":"999","TLE_LINE2":"2 53539  53.2209 355.2738 0002227  31.1452 328.9672 15.08831538 17221","OBJECT_ID":"2022-101N","OBJECT_NAME":"STARLINK-4123","SITE":"AFETR","EPHEMERIS_TYPE":"0","CENTER_NAME":"EARTH","RCS_SIZE":"LARGE","OBJECT_TYPE":"PAYLOAD"}];
